{
  "norad_id": 20253,
  "name": "FLTSATCOM 8 (USA 46)",
  "history": [
    {
      "epoch": "2026-03-28T13:40:26.698944Z",
      "apogee_km": 35819.64491943445,
      "perigee_km": 35751.68530319144,
      "latitude_deg": 3.1446859985295674,
      "longitude_deg": 126.13316393794705,
      "height_km": 35818.33327387513,
      "semi_major_axis_km": 42163.80211131295,
      "eccentricity": 0.0008059,
      "inclination_deg": 12.4438,
      "raan_deg": 351.6472,
      "arg_perigee_deg": 356.3586,
      "mean_anomaly_deg": 168.8484,
      "mean_motion_rev_day": 1.00275102
    },
    {
      "epoch": "2026-03-29T14:41:38.749920Z",
      "apogee_km": 35819.67864010871,
      "perigee_km": 35751.95152715581,
      "latitude_deg": -0.33914730927071457,
      "longitude_deg": 125.74891883204985,
      "height_km": 35819.30096753204,
      "semi_major_axis_km": 42163.95208363226,
      "eccentricity": 0.00080314,
      "inclination_deg": 12.4436,
      "raan_deg": 351.641,
      "arg_perigee_deg": 356.6728,
      "mean_anomaly_deg": 184.8773,
      "mean_motion_rev_day": 1.00274567
    },
    {
      "epoch": "2026-03-30T13:35:29.908032Z",
      "apogee_km": 35819.72433279818,
      "perigee_km": 35752.179991805526,
      "latitude_deg": 2.983692200469523,
      "longitude_deg": 126.13224009536395,
      "height_km": 35818.459334634885,
      "semi_major_axis_km": 42164.089162301854,
      "eccentricity": 0.00080097,
      "inclination_deg": 12.4434,
      "raan_deg": 351.6353,
      "arg_perigee_deg": 356.9201,
      "mean_anomaly_deg": 169.0456,
      "mean_motion_rev_day": 1.00274078
    },
    {
      "epoch": "2026-04-01T14:45:38.560032Z",
      "apogee_km": 35819.86107551567,
      "perigee_km": 35752.63418066464,
      "latitude_deg": -1.1995540945564425,
      "longitude_deg": 125.66177391661274,
      "height_km": 35819.391617908674,
      "semi_major_axis_km": 42164.384628090156,
      "eccentricity": 0.0007972,
      "inclination_deg": 12.4429,
      "raan_deg": 351.6233,
      "arg_perigee_deg": 357.4319,
      "mean_anomaly_deg": 188.1088,
      "mean_motion_rev_day": 1.00273024
    },
    {
      "epoch": "2026-04-02T13:28:02.662752Z",
      "apogee_km": 35819.96860586205,
      "perigee_km": 35752.80642134531,
      "latitude_deg": 2.746998948909249,
      "longitude_deg": 126.11134457840608,
      "height_km": 35818.7509287299,
      "semi_major_axis_km": 42164.52451360368,
      "eccentricity": 0.00079643,
      "inclination_deg": 12.4427,
      "raan_deg": 351.6176,
      "arg_perigee_deg": 357.5703,
      "mean_anomaly_deg": 169.5093,
      "mean_motion_rev_day": 1.00272525
    },
    {
      "epoch": "2026-04-03T15:08:08.964384Z",
      "apogee_km": 35820.07976337186,
      "perigee_km": 35753.00419205412,
      "latitude_deg": -2.8193808597363,
      "longitude_deg": 125.47674255004985,
      "height_km": 35818.992180489695,
      "semi_major_axis_km": 42164.678977712996,
      "eccentricity": 0.0007954,
      "inclination_deg": 12.4425,
      "raan_deg": 351.6111,
      "arg_perigee_deg": 357.8104,
      "mean_anomaly_deg": 195.3548,
      "mean_motion_rev_day": 1.00271974
    },
    {
      "epoch": "2026-04-04T15:05:37.951008Z",
      "apogee_km": 35820.18124506097,
      "perigee_km": 35753.18977505699,
      "latitude_deg": -2.8945935506718015,
      "longitude_deg": 125.46414259251807,
      "height_km": 35819.08252676653,
      "semi_major_axis_km": 42164.822510058984,
      "eccentricity": 0.0007944,
      "inclination_deg": 12.4422,
      "raan_deg": 351.6054,
      "arg_perigee_deg": 358.0848,
      "mean_anomaly_deg": 195.4376,
      "mean_motion_rev_day": 1.00271462
    },
    {
      "epoch": "2026-04-05T13:58:26.783616Z",
      "apogee_km": 35820.28934427266,
      "perigee_km": 35753.35752937446,
      "latitude_deg": 0.49121388750201195,
      "longitude_deg": 125.84297074582409,
      "height_km": 35819.858746210586,
      "semi_major_axis_km": 42164.96043682356,
      "eccentricity": 0.00079369,
      "inclination_deg": 12.4419,
      "raan_deg": 351.6,
      "arg_perigee_deg": 358.3832,
      "mean_anomaly_deg": 179.2827,
      "mean_motion_rev_day": 1.0027097
    },
    {
      "epoch": "2026-04-05T15:03:15.302016Z",
      "apogee_km": 35820.29734433665,
      "perigee_km": 35753.361303596685,
      "latitude_deg": -2.9761769035124814,
      "longitude_deg": 125.4490091868116,
      "height_km": 35819.18758543609,
      "semi_major_axis_km": 42164.96632396667,
      "eccentricity": 0.00079374,
      "inclination_deg": 12.4419,
      "raan_deg": 351.5998,
      "arg_perigee_deg": 358.3856,
      "mean_anomaly_deg": 195.5268,
      "mean_motion_rev_day": 1.00270949
    },
    {
      "epoch": "2026-04-07T13:22:38.792352Z",
      "apogee_km": 35820.5417947695,
      "perigee_km": 35753.670249251176,
      "latitude_deg": 1.9921945381034492,
      "longitude_deg": 125.99758618667248,
      "height_km": 35819.555069976,
      "semi_major_axis_km": 42165.24302201034,
      "eccentricity": 0.00079297,
      "inclination_deg": 12.4414,
      "raan_deg": 351.5887,
      "arg_perigee_deg": 359.0317,
      "mean_anomaly_deg": 171.627,
      "mean_motion_rev_day": 1.00269962
    },
    {
      "epoch": "2026-04-07T14:58:16.947264Z",
      "apogee_km": 35820.55287957847,
      "perigee_km": 35753.67878858362,
      "latitude_deg": -3.1255808453332405,
      "longitude_deg": 125.41562051484368,
      "height_km": 35819.44231457219,
      "semi_major_axis_km": 42165.252834081046,
      "eccentricity": 0.000793,
      "inclination_deg": 12.4414,
      "raan_deg": 351.5884,
      "arg_perigee_deg": 359.0393,
      "mean_anomaly_deg": 195.5935,
      "mean_motion_rev_day": 1.00269927
    },
    {
      "epoch": "2026-04-08T13:13:14.276352Z",
      "apogee_km": 35820.672095496644,
      "perigee_km": 35753.82478003902,
      "latitude_deg": 2.285186440649257,
      "longitude_deg": 126.0191482064705,
      "height_km": 35819.48675317617,
      "semi_major_axis_km": 42165.385437767836,
      "eccentricity": 0.00079268,
      "inclination_deg": 12.4411,
      "raan_deg": 351.5831,
      "arg_perigee_deg": 359.4105,
      "mean_anomaly_deg": 169.8704,
      "mean_motion_rev_day": 1.00269454
    },
    {
      "epoch": "2026-04-09T21:21:00.138816Z",
      "apogee_km": 35820.84882484745,
      "perigee_km": 35754.033249889435,
      "latitude_deg": -11.486347421999344,
      "longitude_deg": 126.13418084598408,
      "height_km": 35776.579545651504,
      "semi_major_axis_km": 42165.57803736845,
      "eccentricity": 0.0007923,
      "inclination_deg": 12.4408,
      "raan_deg": 351.5755,
      "arg_perigee_deg": 0.0096,
      "mean_anomaly_deg": 292.5226,
      "mean_motion_rev_day": 1.00268767
    },
    {
      "epoch": "2026-04-10T12:33:47.032128Z",
      "apogee_km": 35820.89222604721,
      "perigee_km": 35754.16927340004,
      "latitude_deg": 3.9392081169292177,
      "longitude_deg": 126.16661878223383,
      "height_km": 35818.25511111836,
      "semi_major_axis_km": 42165.66774972362,
      "eccentricity": 0.0007912,
      "inclination_deg": 12.4406,
      "raan_deg": 351.5718,
      "arg_perigee_deg": 0.3408,
      "mean_anomaly_deg": 161.006,
      "mean_motion_rev_day": 1.00268447
    },
    {
      "epoch": "2026-04-11T18:32:20.244192Z",
      "apogee_km": 35820.99926254029,
      "perigee_km": 35754.42781770754,
      "latitude_deg": -11.835304371421817,
      "longitude_deg": 125.21896331511113,
      "height_km": 35800.659551420795,
      "semi_major_axis_km": 42165.850540123916,
      "eccentricity": 0.0007894,
      "inclination_deg": 12.4403,
      "raan_deg": 351.5647,
      "arg_perigee_deg": 1.2253,
      "mean_anomaly_deg": 250.9774,
      "mean_motion_rev_day": 1.00267795
    },
    {
      "epoch": "2026-04-12T21:39:09.560736Z",
      "apogee_km": 35821.1018427918,
      "perigee_km": 35754.6482078399,
      "latitude_deg": -10.75857916753669,
      "longitude_deg": 126.19131971508253,
      "height_km": 35773.899188749376,
      "semi_major_axis_km": 42166.01202531585,
      "eccentricity": 0.000788,
      "inclination_deg": 12.44,
      "raan_deg": 351.558,
      "arg_perigee_deg": 1.8187,
      "mean_anomaly_deg": 298.1893,
      "mean_motion_rev_day": 1.00267219
    },
    {
      "epoch": "2026-04-14T14:49:26.135040Z",
      "apogee_km": 35821.19583281975,
      "perigee_km": 35755.045407864956,
      "latitude_deg": -4.074992033711191,
      "longitude_deg": 125.20492939697066,
      "height_km": 35820.1662731052,
      "semi_major_axis_km": 42166.25762034236,
      "eccentricity": 0.0007844,
      "inclination_deg": 12.4395,
      "raan_deg": 351.548,
      "arg_perigee_deg": 2.7861,
      "mean_anomaly_deg": 196.4565,
      "mean_motion_rev_day": 1.00266343
    },
    {
      "epoch": "2026-04-15T19:42:16.064064Z",
      "apogee_km": 35821.22052828249,
      "perigee_km": 35755.36499827819,
      "latitude_deg": -12.416174451945144,
      "longitude_deg": 125.6124565853065,
      "height_km": 35790.47179494178,
      "semi_major_axis_km": 42166.42976328034,
      "eccentricity": 0.0007809,
      "inclination_deg": 12.4392,
      "raan_deg": 351.5409,
      "arg_perigee_deg": 3.4527,
      "mean_anomaly_deg": 270.1637,
      "mean_motion_rev_day": 1.00265729
    },
    {
      "epoch": "2026-04-16T13:47:38.826816Z",
      "apogee_km": 35821.24843683807,
      "perigee_km": 35755.55297109528,
      "latitude_deg": -1.235054187731795,
      "longitude_deg": 125.46626062925657,
      "height_km": 35821.05445200293,
      "semi_major_axis_km": 42166.53770396668,
      "eccentricity": 0.000779,
      "inclination_deg": 12.4389,
      "raan_deg": 351.5363,
      "arg_perigee_deg": 3.8317,
      "mean_anomaly_deg": 181.8582,
      "mean_motion_rev_day": 1.00265344
    }
  ]
}